BEIDOU-2 IGSO-5         
1 37948U 11073A   26160.78774434 -.00000165  00000+0  00000+0 0  9993
2 37948  47.6930 271.6390 0113681 221.6481 140.2139  1.00274569 53062
LUCH-5A                 
1 37951U 11074B   26159.62578126 -.00000035  00000+0  00000+0 0  9995
2 37951   8.7313  73.9336 0002316  16.8767 198.4781  1.00269774 52963
BEIDOU-2 G5             
1 38091U 12008A   26160.92595170  .00000074  00000+0  00000+0 0  9994
2 38091   3.5546  69.7428 0009283 275.2689 305.2979  1.00270419 52290
BEIDOU-2 M3             
1 38250U 12018A   26159.59735353 -.00000057  00000+0  00000+0 0  9994
2 38250  55.7660 305.1650 0019966 274.7700  84.9929  1.86230188 95784
BEIDOU-2 M4             
1 38251U 12018B   26160.60355450 -.00000060  00000+0  00000+0 0  9999
2 38251  55.6651 304.3456 0011146 277.0468  82.8157  1.86229817 95808
SES-5                   
1 38652U 12036A   26160.69935513  .00000051  00000+0  00000+0 0  9996
2 38652   0.0516 309.4080 0001903 131.2910  74.1274  1.00271474 44382
BEIDOU-2 M6             
1 38775U 12050B   26160.31332882 -.00000047  00000+0  00000+0 0  9993
2 38775  56.5375  63.1548 0013850 356.2475   3.7665  1.86230901 93165
GSAT-10                 
1 38779U 12051B   26160.85731962 -.00000148  00000+0  00000+0 0  9991
2 38779   0.0156 289.5116 0007900 160.4511 199.9322  1.00271265 50020
NAVSTAR 67 (USA 239)    
1 38833U 12053A   26160.33917010  .00000103  00000+0  00000+0 0  9997
2 38833  53.5846 143.9208 0179848  65.6483 296.2179  2.00567341 99286
GSAT0103 (GALILEO-FM3)  
1 38857U 12055A   26159.67680548  .00000026  00000+0  00000+0 0  9997
2 38857  55.8003 101.7793 0005121 302.9774  56.9469  1.70475307 84862
BEIDOU-2 G6             
1 38953U 12059A   26160.92006470 -.00000160  00000+0  00000+0 0  9994
2 38953   4.4018  73.6015 0009998 325.1215 274.7988  1.00274032 49831
LUCH-5B                 
1 38977U 12061A   26160.67129631 -.00000125  00000+0  00000+0 0  9991
2 38977  10.4646  49.9541 0001789 136.7986 296.6675  1.00273522 49538
COSMOS 2485 [GLONASS-M] 
1 39155U 13019A   26158.05554720 -.00000009  00000+0  00000+0 0  9995
2 39155  65.4143  73.9444 0023464 234.9067 124.8959  2.13103506102067
NAVSTAR 68 (USA 242)    
1 39166U 13023A   26160.20589165 -.00000034  00000+0  00000+0 0  9991
2 39166  54.5104 269.2989 0141592  51.0120 310.2585  2.00563489 95726
IRNSS-1A                
1 39199U 13034A   26142.85947303  .00000059  00000+0  00000+0 0  9998
2 39199  35.6649  64.2334 0016618 185.3754 355.4646  1.00280263 47111
NAVSTAR 69 (USA 248)    
1 39533U 14008A   26160.20747882  .00000109  00000+0  00000+0 0  9997
2 39533  53.6534 149.6452 0084239 231.1478 128.1054  2.00559266 89524
ASTRA 5B                
1 39617U 14011B   26160.70299514  .00000154  00000+0  00000+0 0  9993
2 39617   0.0541 321.3742 0002010 105.1524 108.1211  1.00270464 44591
COSMOS 2492 [GLONASS-M] 
1 39620U 14012A   26160.36073044 -.00000033  00000+0  00000+0 0  9995
2 39620  65.3026 314.2024 0010486 325.9791  33.9512  2.13103521 95077
IRNSS-1B                
1 39635U 14017A   26154.79691353  .00000128  00000+0  00000+0 0  9999
2 39635  28.9456 240.6342 0023143 186.5094 167.0601  1.00272113 44656
LUCH-5V                 
1 39727U 14023A   26160.94892699 -.00000251  00000+0  00000+0 0  9996
2 39727   5.1145  69.8240 0002800  34.9718 229.7901  1.00266828 44288
NAVSTAR 70 (USA 251)    
1 39741U 14026A   26159.98431791 -.00000057  00000+0  00000+0 0  9993
2 39741  56.5024 331.8369 0038235 326.6943  33.0742  2.00561560 88375
COSMOS 2500 [GLONASS-M] 
1 40001U 14032A   26160.53058802 -.00000034  00000+0  00000+0 0  9997
2 40001  65.2376 313.9442 0007055 183.5747 176.4176  2.13106098 93299
NAVSTAR 71 (USA 256)    
1 40105U 14045A   26160.07599105  .00000000  00000+0  00000+0 0  9993
2 40105  55.3481  88.7881 0032961 118.3556 241.9707  2.00557855 85918
GSAT0201 (GALILEO 5)    
1 40128U 14050A   26160.33214522 -.00000053  00000+0  00000+0 0  9999
2 40128  48.8841 273.7586 1673300 179.0833 181.3092  1.85520027 78176
GSAT0202 (GALILEO 6)    
1 40129U 14050B   26160.58770951 -.00000052  00000+0  00000+0 0  9999
2 40129  48.9007 272.8335 1674676 179.8278 180.2807  1.85520607 80340
IRNSS-1C                
1 40269U 14061A   26160.71479576 -.00000145  00000+0  00000+0 0  9993
2 40269   6.4996  89.0704 0022663   1.5784 147.7780  1.00270512 42614
NAVSTAR 72 (USA 258)    
1 40294U 14068A   26160.44512867 -.00000064  00000+0  00000+0 0  9999
2 40294  56.9823  31.2530 0066877  70.2914 290.4821  2.00575640 85058
COSMOS 2501 [GLONASS-K] 
1 40315U 14075A   26160.32331928  .00000109  00000+0  00000+0 0  9994
2 40315  63.6158 190.6443 0022473 212.2153 147.7161  2.13101469 89680
NAVSTAR 73 (USA 260)    
1 40534U 15013A   26160.58338993  .00000081  00000+0  00000+0 0  9996
2 40534  53.1683 204.4923 0109401  40.1375 320.7446  2.00551895 81676
GSAT0203 (GALILEO 7)    
1 40544U 15017A   26159.41409852 -.00000063  00000+0  00000+0 0  9995
2 40544  56.7896 341.8347 0002095 280.5229  79.4690  1.70476076 69057
GSAT0204 (GALILEO 8)    
1 40545U 15017B   26159.66986447 -.00000062  00000+0  00000+0 0  9992
2 40545  56.7974 341.8463 0001863 251.2225 108.7730  1.70475757 32109
